
# Worst residual: 15.53 km
# MJD 58672.000000 (2019 Jul  8  0:00)
2019-021B
1 99999U 19021B   19189.49919926  .00000000  00000-0  00000-0 0  6284
2 99999 022.8892 003.5701 8693516 195.7536 128.3019 00.74688423    04

# Worst residual: 13.30 km
# MJD 58673.000000 (2019 Jul  9  0:00)
2019-021B
1 99999U 19021B   19190.49919926  .00000000  00000-0  00000-0 0  6286
2 99999 022.8934 003.4687 8693105 195.9348 037.1452 00.74704158    02

# Worst residual: 12.66 km
# MJD 58674.000000 (2019 Jul 10  0:00)
2019-021B
1 99999U 19021B   19191.49919926  .00000000  00000-0  00000-0 0  6287
2 99999 022.8929 003.3729 8693372 196.1077 305.9814 00.74693011    03

# Worst residual: 9.88 km
# MJD 58675.000000 (2019 Jul 11  0:00)
2019-021B
1 99999U 19021B   19192.49919926  .00000000  00000-0  00000-0 0  6288
2 99999 022.8829 003.2622 8695533 196.2986 214.8322 00.74698592    05

# Worst residual: 14.05 km
# MJD 58676.000000 (2019 Jul 12  0:00)
2019-021B
1 99999U 19021B   19193.49919926  .00000000  00000-0  00000-0 0  6289
2 99999 022.8907 003.1665 8693811 196.4749 123.6765 00.74687590    08

# Worst residual: 11.26 km
# MJD 58677.000000 (2019 Jul 13  0:00)
2019-021B
1 99999U 19021B   19194.49919926  .00000000  00000-0  00000-0 0  6280
2 99999 022.8896 003.0638 8693961 196.6576 032.5194 00.74712724    02

# Worst residual: 14.11 km
# MJD 58678.000000 (2019 Jul 14  0:00)
2019-021B
1 99999U 19021B   19195.49919926  .00000000  00000-0  00000-0 0  6281
2 99999 022.8878 002.9695 8694137 196.8311 301.3376 00.74695486    02

# Worst residual: 9.17 km
# MJD 58679.000000 (2019 Jul 15  0:00)
2019-021B
1 99999U 19021B   19196.49919926  .00000000  00000-0  00000-0 0  6282
2 99999 022.8754 002.8579 8696363 197.0243 210.1860 00.74702695    01

# Worst residual: 15.57 km
# MJD 58680.000000 (2019 Jul 16  0:00)
2019-021B
1 99999U 19021B   19197.49919926  .00000000  00000-0  00000-0 0  6283
2 99999 022.8791 002.7614 8693928 197.1981 119.0317 00.74693815    02

# Worst residual: 9.13 km
# MJD 58681.000000 (2019 Jul 17  0:00)
2019-021B
1 99999U 19021B   19198.49919926  .00000000  00000-0  00000-0 0  6284
2 99999 022.8765 002.6580 8693125 197.3768 027.8795 00.74716798    00

# Worst residual: 13.34 km
# MJD 58682.000000 (2019 Jul 18  0:00)
2019-021B
1 99999U 19021B   19199.49919926  .00000000  00000-0  00000-0 0  6285
2 99999 022.8790 002.5656 8693233 197.5430 296.7216 00.74694497    05

# Worst residual: 8.53 km
# MJD 58683.000000 (2019 Jul 19  0:00)
2019-021B
1 99999U 19021B   19200.49919926  .00000000  00000-0  00000-0 0  6288
2 99999 022.8626 002.4501 8695998 197.7334 205.5762 00.74704801    01

# Worst residual: 16.51 km
# MJD 58684.000000 (2019 Jul 20  0:00)
2019-021B
1 99999U 19021B   19201.49919926  .00000000  00000-0  00000-0 0  6289
2 99999 022.8689 002.3558 8694125 197.9044 114.4281 00.74686139    09

# Worst residual: 13.88 km
# MJD 58685.000000 (2019 Jul 21  0:00)
2019-021B
1 99999U 19021B   19202.49919926  .00000000  00000-0  00000-0 0  6280
2 99999 022.8645 002.2509 8694977 198.0851 023.2883 00.74709074    08

# Worst residual: 11.61 km
# MJD 58686.000000 (2019 Jul 22  0:00)
2019-021B
1 99999U 19021B   19203.49919926  .00000000  00000-0  00000-0 0  6281
2 99999 022.8630 002.1539 8696285 198.2625 292.1008 00.74691071    02

# Worst residual: 6.78 km
# MJD 58687.000000 (2019 Jul 23  0:00)
2019-021B
1 99999U 19021B   19204.49919926  .00000000  00000-0  00000-0 0  6282
2 99999 022.8434 002.0352 8698579 198.4653 200.9235 00.74691044    06

# Worst residual: 10.02 km
# MJD 58688.000000 (2019 Jul 24  0:00)
2019-021B
1 99999U 19021B   19205.49919926  .00000000  00000-0  00000-0 0  6283
2 99999 022.8466 001.9354 8697229 198.6548 109.7500 00.74684740    03

# Worst residual: 14.41 km
# MJD 58689.000000 (2019 Jul 25  0:00)
2019-021B
1 99999U 19021B   19206.49919926  .00000000  00000-0  00000-0 0  6284
2 99999 022.8403 001.8272 8696677 198.8465 018.5609 00.74710800    02

# Worst residual: 14.77 km
# MJD 58690.000000 (2019 Jul 26  0:00)
2019-021B
1 99999U 19021B   19207.49919926  .00000000  00000-0  00000-0 0  6285
2 99999 022.8378 001.7289 8695627 199.0281 287.3660 00.74682715    09

# Worst residual: 7.07 km
# MJD 58691.000000 (2019 Jul 27  0:00)
2019-021B
1 99999U 19021B   19208.49919926  .00000000  00000-0  00000-0 0  6286
2 99999 022.8193 001.6085 8697308 199.2301 196.2160 00.74699254    09

# Worst residual: 12.24 km
# MJD 58692.000000 (2019 Jul 28  0:00)
2019-021B
1 99999U 19021B   19209.49919926  .00000000  00000-0  00000-0 0  6287
2 99999 022.8249 001.5111 8694478 199.4041 105.0558 00.74693807    05

# Worst residual: 11.42 km
# MJD 58693.000000 (2019 Jul 29  0:00)
2019-021B
1 99999U 19021B   19210.49919926  .00000000  00000-0  00000-0 0  6289
2 99999 022.8234 001.4083 8693517 199.5820 013.8958 00.74716603    05

# Worst residual: 15.11 km
# MJD 58694.000000 (2019 Jul 30  0:00)
2019-021B
1 99999U 19021B   19211.49919926  .00000000  00000-0  00000-0 0  6280
2 99999 022.8209 001.3122 8694519 199.7550 282.7186 00.74697106    01

# Worst residual: 7.72 km
# MJD 58695.000000 (2019 Jul 31  0:00)
2019-021B
1 99999U 19021B   19212.49919926  .00000000  00000-0  00000-0 0  6281
2 99999 022.8048 001.1941 8697579 199.9458 191.5629 00.74702072    05

# Worst residual: 13.29 km
# MJD 58696.000000 (2019 Aug  1  0:00)
2019-021B
1 99999U 19021B   19213.49919926  .00000000  00000-0  00000-0 0  6282
2 99999 022.8123 001.0983 8695475 200.1244 100.4037 00.74687898    05

# Worst residual: 13.32 km
# MJD 58697.000000 (2019 Aug  2  0:00)
2019-021B
1 99999U 19021B   19214.49919926  .00000000  00000-0  00000-0 0  6283
2 99999 022.8063 000.9928 8695930 200.3133 009.2091 00.74719106    04

# Worst residual: 12.38 km
# MJD 58698.000000 (2019 Aug  3  0:00)
2019-021B
1 99999U 19021B   19215.49919926  .00000000  00000-0  00000-0 0  6284
2 99999 022.8040 000.8935 8696610 200.4948 278.0105 00.74687664    02

# Worst residual: 6.39 km
# MJD 58699.000000 (2019 Aug  4  0:00)
2019-021B
1 99999U 19021B   19216.49919926  .00000000  00000-0  00000-0 0  6285
2 99999 022.7887 000.7750 8698443 200.6966 186.8411 00.74694457    06

# Worst residual: 12.82 km
# MJD 58700.000000 (2019 Aug  5  0:00)
2019-021B
1 99999U 19021B   19217.49919926  .00000000  00000-0  00000-0 0  6286
2 99999 022.7998 000.6802 8696261 200.8770 095.6750 00.74687002    08
